ERNST                   
1 60528U 24149BN  26068.81085955  .00017377  00000+0  49131-3 0  9999
2 60528  97.3842 151.9807 0004908 295.1196  64.9538 15.36382433 87009
KUIPER-00260            
1 67787U 26030Z   26068.62023347  .00034182  00000+0  95058-3 0  9992
2 67787  51.8799 219.3544 0001391  50.4119 309.6990 15.36527197  4992
